#dP2021  2  7 18  0  0.00000000      96 __u+U ITR00 EXT  IAC
## 2144  64800.00000000   900.00000000 59252 0.7500000000000
+  116   C06C07C08C09C10C11C12C13C14C16C19C20C21C22C23C24C25
+        C26C27C28C29C30C32C33C34C35C36C37C38C39C40C41C42C43
+        C44C45C46E01E02E03E04E05E07E08E09E11E12E13E14E15E18
+        E19E21E24E25E26E27E30E31E33E36G01G02G03G04G05G06G07
+        G08G09G10G11G12G13G14G15G16G17G18G19G20G21G22G23G24
+        G25G26G27G28G29G30G31G32J01J02J03R01R02R03R04R05R07
+        R08R11R12R13R14R15R16R17R18R19R20R21R22R24  0  0  0
++         0 11  8 11 10  9 10  8 11  7  9 10 10  8  9 10  9
++         8  8 10  9  9  9  9  9  8  8 10 10  9 10  9  9  9
++         9  9  8  7  8  8  8  9  8  7  8  7  9  8  9  7  8
++         7  7  9  7  8  6  6  8  7  8  7  8  7  7  7  7  7
++         7  7  7  8  8  7  7  7  8  8  9  8  8  8  8  7  8
++         8  8  7  6  9  7  8  6 11 10  9  9  8  8  9 10  6
++         9  7  9  8  7  7  8  7  8  6 10  9  8  9  0  0  0
%c M  cc GPS ccc cccc cccc cccc cccc ccccc ccccc ccccc ccccc
%c cc cc ccc ccc cccc cccc cccc cccc ccccc ccccc ccccc ccccc
%f  0.0000000  0.000000000  0.00000000000  0.000000000000000
%f  0.0000000  0.000000000  0.00000000000  0.000000000000000
%i    0    0    0    0      0      0      0      0         0
%i    0    0    0    0      0      0      0      0         0
/* IAC                                ULTRA-RAPID PREDICTION
/* S/V CLOCKS ARE ALIGNED TO GNSS TIME                      
/* G:C1WC2W R:C1PC2P E:C1XC5X C:C2IC6I J:C1CC2S             
/* PCV:IGS14_2134 OL/AL:FES2004  NONE     YN ORB:CoN CLK:CoN
*  2021 02 07 23 45  0.00000000
PC06  -5868.286236  27382.102321  32079.607340     72.053393
PC07 -23246.902482  27142.918711 -22479.694729   -304.490563
PC08 -15204.212681  38143.258614  -8517.359668   -918.097364
PC09   7017.829135  34201.164484  24198.493444    748.833227
PC10  -9383.149527  28481.107334 -29573.417377    -90.248993
PC11  -7764.710825  14605.617522 -22400.250845   -936.371436
PC12 -18695.983026  -3162.306349 -20439.268932    782.750014
PC13  -5721.835699  41159.599651   6348.553065    132.019781
PC14 -18774.329954  13177.847638  15954.923869     84.074734
PC16  -4325.967576  27429.292130  31875.607468   -687.474720
PC19   8926.709328 -15732.167962 -21221.661445    719.796102
PC20  24620.435128  -9167.171409  -9359.189181   -913.508675
PC21 -26340.618742  -3224.999700  -8643.378233   -827.885799
PC22 -12420.418487 -13383.351928 -21107.575647   -871.615628
PC23   4580.416534  20860.636831 -17957.869456   -876.708944
PC24 -18290.496728  15474.299976  14269.484787   -755.940774
PC25  -8722.875328  26298.717533  -3217.925078   -925.536909
PC26 -16353.417871  -2490.569014  22460.975902    951.679227
PC27  20602.562910  12378.723916  14182.678377    479.638371
PC28  14299.764201  23799.630577  -2781.843072   -112.188855
PC29   -430.174893 -21262.129888  18062.546831    349.389415
PC30  14901.850299  -6368.785218  22719.916313    441.874926
PC32  26339.983478   3074.443162   8696.869482   -891.529813
PC33  -8946.215703  15811.790228  21191.988442   -955.541009
PC34 -14493.040522   7065.262443 -22778.543774   -745.071314
PC35 -14911.426175 -23363.881717   3068.152510   -428.418969
PC36   9551.615079 -26064.239247   2916.236692   -760.129830
PC37  15980.409175   3711.884910 -22564.125793   -863.431235
PC38 -14064.969197  39172.562769  -6292.082922    128.710292
PC39  -1744.491175  27940.659917  31570.490930     28.242490
PC40 -16451.811818  23554.506806 -30902.047779    129.310122
PC41  12165.070428  13510.096097  21221.782500   -930.642643
PC42 -24970.131172   8877.466606   8801.414662   -852.329702
PC43   -135.570144  21109.695151 -18266.282456   -587.835468
PC44 -21058.085107 -11768.517610 -14000.452909     27.316738
PC45  -4569.568460 -20796.197831  18051.064318    356.297016
PC46  18053.662490 -16337.093933 -13672.326837    415.616728
PE01 -21115.915827  20379.840471  -3813.039440  -1041.453848
PE02  21074.619437 -20432.473280   3911.474945    196.803069
PE03  15378.359751 -11291.854620 -22633.076149   -396.153573
PE04   5673.589127  18877.004319  22084.742123   -705.216690
PE05  27730.611661   3044.379855  -9898.674267   -306.383888
PE07 -23780.805431 -15457.754353  -8478.644191   -497.971557
PE08  -6160.420434 -18760.359187 -22056.425773   6050.278426
PE09  23958.861845  15215.625882   8383.068809   5772.791332
PE11  13899.490678  21050.478923  15502.837947   6353.416389
PE12   2880.203966  29297.806374  -3178.062536   5367.200996
PE13 -13766.018680 -21328.350340 -15206.496415    411.687580
PE14   -767.205263  21927.943246 -21975.742963  -1322.231312
PE15  -2999.349111 -29274.393460   3178.676788    830.406193
PE18 -12831.137757 -20450.924341  10225.856660  -1445.339545
PE19 -17425.898089   9727.897866  21859.610062    198.250447
PE21 -24804.775730   8069.509689  13978.483069   -647.227925
PE24  13718.574842   9992.451798 -24268.196921   -731.799605
PE25  24783.334423  -7931.142456 -14118.393333   -525.970947
PE26 -16482.682300    -80.704459 -24574.743055   2173.869834
PE27 -14231.407115  -9391.721835  24194.696820     34.546148
PE30   5491.765305 -21456.132179  19638.488586   3199.105736
PE31  -4619.129396  21202.704578 -20122.038111   -478.081566
PE33  -9495.512533  20000.157487 -19638.513693   -465.507855
PE36  16423.952080    860.577631  24622.473715    443.618374
PG01  13296.439939 -12793.155931  18728.533909    765.636174
PG02 -13412.597483 -11978.446043 -18880.613579   -574.524088
PG03  22890.264574 -13214.641214  -2045.554950    -77.092595
PG04  17641.351857  -4242.708442 -19409.436735   -178.646985
PG05 -22112.560652    125.402250 -14997.985429    -33.098430
PG06  -6222.822029 -23221.333421 -11170.622595     -3.415148
PG07   6736.428730 -24246.855367  -7334.573712     50.777104
PG08  22035.884305   1656.285668  14954.311914     -9.479982
PG09   6685.509517 -13952.281511 -21648.990034   -320.765660
PG10    378.745664  16142.614370  21146.361302    -56.656830
PG11  15412.558389  -4614.581545  20666.853688    -30.873019
PG12 -24721.043290   9304.522924   1542.115099      1.986079
PG13 -22365.009322 -12175.763848   7632.339576     94.690301
PG14   2244.045455 -16779.569627  20455.528596     95.079273
PG15 -22236.301315    921.355091  14397.071263   -170.932039
PG16  21274.189941   3238.058541 -16106.064675   -276.792978
PG17  -9756.785022 -19793.384596  15214.298078    390.291887
PG18  -5320.069565  25523.375828  -4912.494525    346.170505
PG19 -16179.215102 -19610.133427   7562.249527    -41.444564
PG20 -10754.917613  19861.445732  13701.792392    524.798454
PG21  15427.529006  -3986.287482  21943.911793     93.684664
PG22  23934.122111  -8761.406429   7350.957364   -683.598944
PG23 -11081.489296  18353.129066  15630.285989    118.148693
PG24 -14866.032646   7714.112198  20293.469938      2.638172
PG25 -16964.133672  17211.305396 -10947.600935     75.975877
PG26  12978.888488  10125.346840 -20938.361199     41.644019
PG27  23461.805679  12298.291928   3628.876856    -71.924211
PG28   -603.705133 -15783.880299  21942.760644    618.728627
PG29  -7662.455087  12615.274077 -22119.663765   -290.799291
PG30   -780.271049 -26143.845192   3919.539517   -381.328196
PG31   7883.813568  21278.504892 -13489.099893    -98.735156
PG32  11960.594679  19326.965830  13973.654035     17.908810
PJ01 -29846.777083  23367.054897  23546.579225   -339.738986
PJ02 -35048.483576  23436.759106   6424.463964      1.596258
PJ03 -20830.899679  21163.151951 -25303.112682     -0.544398
PR01  10361.932476  10646.675553  20731.734195     74.676970
PR02  24868.358504   4141.944869   4129.956811    466.157012
PR03  21548.609237  -4394.200138 -12930.071041     30.494609
PR04   6059.412944 -10117.620921 -22593.834287     73.188384
PR05 -12718.186859 -10285.937079 -19554.915960     66.149661
PR07 -21065.283597   4722.618401  13585.007357    -42.364757
PR08  -5989.013258  10279.559594  22613.403555    -57.262347
PR11 -10755.127322  22047.191331  -6999.354102      3.622920
PR12   1731.682022  14846.347522 -20640.757517    203.190835
PR13  13057.739961   -677.166816 -21923.762536    -50.422767
PR14  16958.663507 -16217.124319  -9989.011173     60.770950
PR15  10828.109345 -21893.750639   7383.139989    105.532938
PR16  -2751.781999 -14357.187805  20912.711342    -11.041447
PR17   9157.657685  -5346.733302  23214.329015    398.160454
PR18   -791.415258 -19412.927070  16515.801974     65.905929
PR19  -9419.887384 -23645.601497   1690.677880   -131.123830
PR20 -13840.362178 -13196.282416 -16841.729601   -432.876412
PR21  -8548.857749   6381.018805 -23162.657286   -186.076402
PR22   1510.458205  20155.525942 -15632.944853    -96.694379
PR24  14315.756487  12245.971455  17215.651418     30.713268
EOF
